OBJECT_NAME,OBJECT_ID,EPOCH,MEAN_MOTION,ECCENTRICITY,INCLINATION,RA_OF_ASC_NODE,ARG_OF_PERICENTER,MEAN_ANOMALY,EPHEMERIS_TYPE,CLASSIFICATION_TYPE,NORAD_CAT_ID,ELEMENT_SET_NO,REV_AT_EPOCH,BSTAR,MEAN_MOTION_DOT,MEAN_MOTION_DDOT
IRIDIUM 154,2018-061F,2026-06-27T05:00:14.451840,14.34217966,.00021762,86.3954,52.6164,89.1391,271.0054,0,U,43574,999,41484,.25182349E-4,.9E-6,0
IRIDIUM 163,2018-061G,2026-06-27T04:32:50.491392,14.34217909,.00022027,86.3952,52.5393,83.5501,276.5945,0,U,43575,999,41481,.31457846E-4,.108E-5,0
IRIDIUM 156,2018-061H,2026-06-27T03:56:18.890592,14.34218984,.00020077,86.3953,52.5572,85.7801,274.3624,0,U,43576,999,41480,.76710652E-4,.235E-5,0
IRIDIUM 164,2018-061J,2026-06-27T03:28:54.467040,14.34218092,.00022265,86.3954,52.6057,90.1368,270.0083,0,U,43577,999,41484,.22883923E-4,.84E-6,0
IRIDIUM 159,2018-061K,2026-06-27T04:23:42.497664,14.34217694,.00022233,86.3951,52.5263,83.9433,276.2016,0,U,43578,999,41481,.8209122E-5,.43E-6,0
IRIDIUM 180,2019-002A,2026-06-27T04:22:58.940832,14.34217468,.00021308,86.3972,349.4183,89.2659,270.8781,0,U,43922,999,39042,-.1964759E-5,.14E-6,0
IRIDIUM 176,2019-002B,2026-06-27T05:14:09.086208,14.72226853,.00024166,86.6093,349.3453,88.5925,271.5569,0,U,43923,999,40072,.11696446E-3,.762E-5,0
IRIDIUM 168,2019-002C,2026-06-27T00:52:54.533856,14.34216560,.00022337,86.3976,349.5566,90.4422,269.7030,0,U,43924,999,39038,.17333436E-4,.68E-6,0
IRIDIUM 173,2019-002D,2026-06-27T05:36:02.933856,14.34217895,.00021621,86.3972,349.3629,88.7377,271.4066,0,U,43925,999,39039,.10953454E-4,.5E-6,0
IRIDIUM 169,2019-002E,2026-06-27T06:26:18.743136,14.38607884,.00016738,86.4218,20.9776,83.3521,276.7868,0,U,43926,999,39167,.86263437E-4,.284E-5,0
IRIDIUM 172,2019-002F,2026-06-27T05:26:54.845952,14.34216812,.0002146,86.3970,349.3736,89.8086,270.3356,0,U,43927,999,39040,-.5026342E-5,.6E-7,0
IRIDIUM 175,2019-002G,2026-06-27T06:10:19.638336,14.43618047,.00037755,86.4517,286.3115,152.7380,207.4020,0,U,43928,999,40043,.86149149E-4,.312E-5,0
IRIDIUM 171,2019-002H,2026-06-27T04:59:30.899328,14.34217573,.00019846,86.3980,349.6889,93.9086,266.2337,0,U,43929,999,39039,-.283704E-5,.12E-6,0
IRIDIUM 170,2019-002J,2026-06-27T00:29:25.230624,14.72226967,.0002491,86.6093,349.4304,85.9663,274.1839,0,U,43930,999,40070,.1112767E-3,.726E-5,0
IRIDIUM 167,2019-002K,2026-06-27T04:50:22.906464,14.34217337,.00018941,86.3971,349.4067,97.3783,262.7628,0,U,43931,999,39039,-.12770054E-4,-.16E-6,0
IRIDIUM 181,2023-068S,2026-06-27T03:49:16.538016,14.43311303,.00024289,86.4490,52.6216,87.6357,272.5122,0,U,56726,999,16387,.81660503E-4,.295E-5,0
IRIDIUM 177,2023-068T,2026-06-26T22:07:50.144160,14.80039543,.0002156,86.1958,324.1675,88.0021,272.1446,0,U,56727,999,16780,.13376E-3,.1038E-4,0
IRIDIUM 174,2023-068U,2026-06-27T05:05:16.355040,14.72235031,.00023932,86.6101,349.4985,80.6291,279.5196,0,U,56728,999,16749,.12322212E-3,.801E-5,0
IRIDIUM 178,2023-068V,2026-06-27T01:06:42.145632,14.80190446,.00033064,86.6563,21.2355,75.7906,284.3683,0,U,56729,999,16782,.98127953E-4,.771E-5,0
IRIDIUM 179,2023-068W,2026-06-27T02:36:27.660672,14.80054793,.00024302,86.6769,30.2223,87.4022,272.7478,0,U,56730,999,16783,.99970631E-4,.783E-5,0
